MEAN_MOTION;ECCENTRICITY;INCLINATION;RA_OF_ASC_NODE;ARG_OF_PERICENTER;MEAN_ANOMALY;BSTAR;MEAN_MOTION_DOT;MEAN_MOTION_DDOT;TYPE
14.32014274;0.000515;45.0193;43.9839;204.992;155.0677;2.1945E-5;-8.1E-7;0;Orbcomm
14.32014391;0.0005171;45.0193;42.6741;206.2081;153.8504;2.4532E-5;-7.4E-7;0;Orbcomm
14.32014593;0.0005178;45.0194;39.3994;209.2994;150.7562;3.0587E-5;-5.8E-7;0;Orbcomm
14.32014761;0.000521;45.0195;37.1072;211.4102;148.6434;3.6261E-5;-4.2E-7;0;Orbcomm
14.32014857;0.0005245;45.0195;34.4874;213.9258;146.1253;3.8334E-5;-3.7E-7;0;Orbcomm
14.32014929;0.0005262;45.0196;32.5228;215.7456;144.3038;4.0794E-5;-3.0E-7;0;Orbcomm
14.32015061;0.00053;45.0196;28.5932;219.3697;140.6765;4.409E-5;-2.1E-7;0;Orbcomm
14.32015066;0.00053;45.0196;28.2658;219.6757;140.3702;4.408E-5;-2.1E-7;0;Orbcomm
14.32015273;0.0005363;45.0196;21.0615;226.3411;133.699;4.2786E-5;-2.4E-7;0;Orbcomm
14.32015156;0.0005304;45.0196;20.4066;226.6002;133.4403;3.8215E-5;-3.7E-7;0;Orbcomm
14.32015228;0.0005403;45.0196;15.8221;230.9358;129.1008;2.9786E-5;-6.0E-7;0;Orbcomm
14.32015275;0.0005406;45.0196;14.5123;232.0975;127.9383;2.9065E-5;-6.2E-7;0;Orbcomm
14.32015355;0.0005418;45.0196;11.565;234.7464;125.2875;2.5015E-5;-7.3E-7;0;Orbcomm
14.32015424;0.0005439;45.0197;7.963;237.9998;122.032;1.7956E-5;-9.2E-7;0;Orbcomm
14.32015825;0.000545;45.0198;2.0687;243.0689;116.96;2.4666E-5;-7.4E-7;0;Orbcomm
14.3201612;0.0005474;45.0198;357.1568;247.3032;112.7235;3.2889E-5;-5.1E-7;0;Orbcomm
14.32016309;0.0005483;45.0199;353.8823;250.2585;109.7669;4.0163E-5;-3.2E-7;0;Orbcomm
14.32016425;0.0005481;45.0198;351.2627;252.4591;107.5656;4.4039E-5;-2.1E-7;0;Orbcomm
14.32016513;0.0005488;45.0198;349.2979;254.2026;105.8215;4.6412E-5;-1.5E-7;0;Orbcomm
14.32016545;0.0005496;45.0197;347.6606;255.5876;104.436;4.6072E-5;-1.6E-7;0;Orbcomm
14.32016635;0.0005502;45.0197;344.7135;258.1625;101.8604;4.6971E-5;-1.3E-7;0;Orbcomm
14.3201667;0.00055;45.0196;343.731;258.9766;101.0462;4.7394E-5;-1.2E-7;0;Orbcomm
14.32016674;0.0005507;45.0196;343.0762;259.5547;100.4679;4.5892E-5;-1.6E-7;0;Orbcomm
14.32016711;0.0005499;45.0196;342.4213;260.086;99.9365;4.7208E-5;-1.2E-7;0;Orbcomm
14.32016889;0.0005497;45.0194;338.1642;263.7109;96.3111;4.5823E-5;-1.6E-7;0;Orbcomm
14.32017142;0.0005484;45.0193;333.5797;267.6782;92.3436;4.3613E-5;-2.2E-7;0;Orbcomm
14.32017264;0.0005459;45.0192;332.2698;268.6564;91.3657;4.4283E-5;-2.0E-7;0;Orbcomm
14.32017435;0.0005439;45.0191;328.9952;271.2632;88.7591;4.1131E-5;-2.9E-7;0;Orbcomm
14.32017599;0.0005432;45.0191;326.048;273.8923;86.1302;3.966E-5;-3.3E-7;0;Orbcomm
14.32017601;0.0005411;45.019;324.0831;275.2783;84.7446;3.2715E-5;-5.2E-7;0;Orbcomm
14.32017739;0.0005395;45.0189;320.4808;278.3637;81.6597;2.989E-5;-5.9E-7;0;Orbcomm
14.32017918;0.0005374;45.0189;315.5688;282.7005;77.324;3.0875E-5;-5.7E-7;0;Orbcomm
14.32017931;0.0005366;45.0189;314.9139;283.2238;76.801;3.1126E-5;-5.6E-7;0;Orbcomm
14.32018088;0.0005335;45.0188;310.3293;287.1534;72.8728;3.5231E-5;-4.5E-7;0;Orbcomm
14.32018097;0.0005333;45.0188;310.0019;287.4576;72.5687;3.5646E-5;-4.4E-7;0;Orbcomm
14.32018156;0.0005319;45.0187;307.0545;290.0473;69.98;3.6981E-5;-4.0E-7;0;Orbcomm
14.32018238;0.0005293;45.0186;305.4173;291.4256;68.6025;3.9278E-5;-3.4E-7;0;Orbcomm
14.32018276;0.0005277;45.0186;304.7623;291.8545;68.174;4.0073E-5;-3.2E-7;0;Orbcomm
14.32018461;0.000526;45.0185;302.1424;294.1131;65.9164;4.5787E-5;-1.6E-7;0;Orbcomm
14.32018606;0.0005242;45.0185;300.8326;295.3034;64.7269;5.0424E-5;-4.0E-8;0;Orbcomm
14.32018919;0.0005179;45.0183;296.2478;299.0743;60.9584;5.3064E-5;3.0E-8;0;Orbcomm
14.32018939;0.0005178;45.0183;295.9203;299.4061;60.6268;5.291E-5;3.0E-8;0;Orbcomm
14.32019137;0.0005151;45.0182;293.3006;301.5503;58.484;5.4905E-5;8.0E-8;0;Orbcomm
14.32019463;0.0005094;45.018;288.3884;305.9439;54.0934;5.141E-5;-1.0E-8;0;Orbcomm
14.32019683;0.0005001;45.018;282.1663;311.3113;48.7302;3.8264E-5;-3.7E-7;0;Orbcomm
14.32019734;0.0004945;45.0179;278.2364;314.6719;45.3724;3.2092E-5;-5.3E-7;0;Orbcomm
14.32019856;0.0004914;45.0179;274.6341;318.049;41.9979;3.4148E-5;-4.8E-7;0;Orbcomm
14.32019964;0.0004884;45.018;272.9968;319.5202;40.528;3.6933E-5;-4.0E-7;0;Orbcomm
14.32020146;0.0004821;45.018;268.412;323.5934;36.4583;4.1554E-5;-2.8E-7;0;Orbcomm
14.32020181;0.0004807;45.018;268.0845;323.8122;36.2398;4.2339E-5;-2.6E-7;0;Orbcomm
14.32020254;0.0004737;45.018;263.4998;327.9098;32.1459;4.1044E-5;-2.9E-7;0;Orbcomm
14.32020243;0.0004661;45.0179;259.57;331.2824;28.7765;3.4912E-5;-4.6E-7;0;Orbcomm
14.3202023;0.0004602;45.018;255.6403;335.0809;24.9814;2.688E-5;-6.8E-7;0;Orbcomm
14.32020246;0.0004579;45.018;254.3306;336.4304;23.6332;2.5417E-5;-7.2E-7;0;Orbcomm
14.32020188;0.0004483;45.0179;249.4184;340.7906;19.277;9.6127E-6;-1.14E-6;0;Orbcomm
14.32020097;0.0004419;45.018;246.4711;343.3798;16.6902;-4.4542E-6;-1.52E-6;0;Orbcomm
14.32020076;0.0004335;45.0179;241.559;348.0259;12.0484;-1.0962E-5;-1.7E-6;0;Orbcomm
14.32020121;0.0004306;45.0179;239.9217;349.6082;10.4675;-9.0077E-6;-1.65E-6;0;Orbcomm
14.32020141;0.000422;45.0179;235.337;354.0406;6.0389;-5.7271E-6;-1.56E-6;0;Orbcomm
14.32020113;0.0004144;45.0179;231.0798;358.2276;1.8555;-8.6615E-7;-1.43E-6;0;Orbcomm
14.32020188;0.0004203;45.0193;229.1133;1.6597;358.4262;1.6626E-6;-1.36E-6;0;Orbcomm
14.32020128;0.0004161;45.0192;227.1484;3.5636;356.5239;-2.24E-6;-1.47E-6;0;Orbcomm
14.32020075;0.0004085;45.0192;222.8913;7.8226;352.2684;-4.7946E-6;-1.53E-6;0;Orbcomm
14.32020057;0.0004073;45.0192;222.2363;8.4993;351.5922;-5.6421E-6;-1.56E-6;0;Orbcomm
14.32019952;0.0004017;45.0193;218.6342;12.1234;347.9708;-1.0463E-5;-1.69E-6;0;Orbcomm
14.32019923;0.0003936;45.0192;214.0496;16.8425;343.2551;-1.0711E-5;-1.69E-6;0;Orbcomm
14.32020001;0.0003855;45.0192;208.81;22.451;337.6504;-5.3463E-6;-1.55E-6;0;Orbcomm
14.32020029;0.0003833;45.0192;207.5001;23.8982;336.2041;-3.2591E-6;-1.49E-6;0;Orbcomm
14.32019976;0.0003634;45.0177;202.9174;27.9137;332.1903;-7.5187E-6;-1.61E-6;0;Orbcomm
14.32020083;0.0003548;45.0176;198.3329;33.1382;326.9685;-6.82E-6;-1.59E-6;0;Orbcomm
14.32020095;0.0003527;45.0176;197.0229;34.5048;325.6027;-7.2335E-6;-1.6E-6;0;Orbcomm
14.3202018;0.0003471;45.0175;194.0757;38.047;322.0621;-1.9875E-6;-1.46E-6;0;Orbcomm
14.32020219;0.0003428;45.0175;191.4558;41.0573;319.053;1.9545E-6;-1.35E-6;0;Orbcomm
14.32020271;0.0003408;45.0175;190.146;42.6293;317.4817;5.2162E-6;-1.26E-6;0;Orbcomm
14.32020353;0.0003354;45.0174;186.5437;46.7706;313.342;1.3661E-5;-1.03E-6;0;Orbcomm
14.32020438;0.0003343;45.0174;185.2339;48.4019;311.7113;1.9707E-5;-8.7E-7;0;Orbcomm
14.32020581;0.000329;45.0173;181.3041;53.3026;306.8122;3.0253E-5;-5.9E-7;0;Orbcomm
14.32020594;0.0003287;45.0173;180.6492;54.0682;306.0468;3.1575E-5;-5.5E-7;0;Orbcomm
14.32020668;0.0003243;45.0172;176.0645;59.8367;300.28;3.396E-5;-4.8E-7;0;Orbcomm
14.32020813;0.0003202;45.0171;171.1524;66.1509;293.9673;3.2641E-5;-5.2E-7;0;Orbcomm
14.32020825;0.00032;45.0171;170.8249;66.6008;293.5174;3.2275E-5;-5.3E-7;0;Orbcomm
14.32021061;0.0003152;45.0171;164.6029;74.4205;285.6989;2.4919E-5;-7.3E-7;0;Orbcomm
14.32021108;0.0003143;45.0171;163.2929;76.2196;283.9;2.2921E-5;-7.8E-7;0;Orbcomm
14.32021276;0.0003126;45.0171;160.0183;80.4233;279.6966;2.0358E-5;-8.5E-7;0;Orbcomm
14.32021539;0.0003115;45.017;157.071;84.3108;275.8094;2.5724E-5;-7.1E-7;0;Orbcomm
14.32021562;0.0003114;45.017;156.7435;84.8125;275.3076;2.5568E-5;-7.1E-7;0;Orbcomm
14.32021848;0.0003102;45.017;152.1587;90.8647;269.2554;2.8777E-5;-6.3E-7;0;Orbcomm
14.32022036;0.0003099;45.0169;147.9015;96.4184;263.7015;3.2084E-5;-5.4E-7;0;Orbcomm
14.32022154;0.0003095;45.0169;144.954;100.3199;259.7996;3.5071E-5;-4.5E-7;0;Orbcomm
14.32022217;0.0003105;45.0169;143.3166;102.5304;257.589;3.7784E-5;-3.8E-7;0;Orbcomm
14.32022335;0.0003112;45.0168;140.0416;106.8575;253.2612;4.0659E-5;-3.0E-7;0;Orbcomm
14.32022285;0.0003121;45.0168;138.4043;108.9209;251.1976;3.7727E-5;-3.8E-7;0;Orbcomm
14.32022377;0.0003139;45.0169;135.1294;113.0847;247.033;3.8966E-5;-3.5E-7;0;Orbcomm
14.32022387;0.000315;45.0169;133.8196;114.6595;245.4579;3.7863E-5;-3.8E-7;0;Orbcomm
14.32022571;0.0003186;45.0169;129.2348;120.5698;239.5463;3.637E-5;-4.2E-7;0;Orbcomm
14.32022932;0.0003228;45.0171;124.65;126.1843;233.9302;3.9903E-5;-3.2E-7;0;Orbcomm
14.32023245;0.0003264;45.0173;121.0477;131.0529;229.06;4.0867E-5;-3.0E-7;0;Orbcomm
14.32023329;0.0003278;45.0173;119.7379;132.3499;227.7625;3.9552E-5;-3.3E-7;0;Orbcomm
14.32023632;0.0003322;45.0175;115.8082;137.2431;222.8674;3.9937E-5;-3.2E-7;0;Orbcomm
14.32023655;0.0003326;45.0175;115.4807;137.6119;222.4984;3.9683E-5;-3.3E-7;0;Orbcomm
14.32024058;0.0003393;45.0177;110.5685;143.4427;216.6651;4.3738E-5;-2.2E-7;0;Orbcomm
14.32024142;0.0003418;45.0178;108.2761;146.2487;213.8577;4.1382E-5;-2.8E-7;0;Orbcomm
14.3202443;0.0003486;45.0179;103.6914;151.5005;208.6032;4.5293E-5;-1.8E-7;0;Orbcomm
14.32024541;0.0003522;45.018;101.3992;153.8224;206.28;4.6537E-5;-1.4E-7;0;Orbcomm
14.32024675;0.0003579;45.0181;97.7969;157.7228;202.3774;4.7392E-5;-1.2E-7;0;Orbcomm
14.32024729;0.0003593;45.0181;96.8145;158.8207;201.2788;4.8528E-5;-9.0E-8;0;Orbcomm
14.32024806;0.0003627;45.0182;94.5221;161.3401;198.7578;4.827E-5;-1.0E-7;0;Orbcomm
14.32024795;0.0003668;45.0182;92.2298;163.6987;196.3978;4.3254E-5;-2.3E-7;0;Orbcomm
14.3202489;0.0003722;45.0183;89.2824;166.788;193.3064;4.0546E-5;-3.1E-7;0;Orbcomm
14.32024828;0.0003749;45.0184;87.6451;168.4194;191.6739;3.4321E-5;-4.7E-7;0;Orbcomm
14.32024845;0.0003787;45.0185;85.3528;170.8518;189.2398;2.9554E-5;-6.0E-7;0;Orbcomm
14.32024824;0.0003798;45.0185;85.0253;171.2353;188.856;2.7146E-5;-6.7E-7;0;Orbcomm
14.32024829;0.000386;45.0187;81.0956;175.3142;184.7741;1.6987E-5;-9.4E-7;0;Orbcomm
14.32024847;0.0003903;45.0187;78.8034;177.4873;182.5993;1.2621E-5;-1.06E-6;0;Orbcomm
14.3202492;0.0003959;45.0189;75.5287;180.8477;179.2363;9.1362E-6;-1.16E-6;0;Orbcomm
14.32024991;0.0003992;45.019;73.5639;182.6978;177.3848;9.8735E-6;-1.14E-6;0;Orbcomm
14.32025075;0.000404;45.0191;70.9441;185.3357;174.7446;1.0897E-5;-1.11E-6;0;Orbcomm
14.32025258;0.0004114;45.0192;66.6871;189.4886;170.5883;1.7618E-5;-9.3E-7;0;Orbcomm
